{"fetched_at":"2026-03-29T16:36:15Z","count":15609,"tles":[{"name":"STARLINK-30952","line1":"1 58405U 23180D   26087.90615923  .00001893  00000+0  78277-4 0  9999","line2":"2 58405  43.0019 304.1384 0000613 276.8534  83.2248 15.27591109130459","category":"Starlink"}]}